STARLINK-2294
1 18020C 21024AV  21326.17179361  .00012861  00000-0  86200-3 0  3263
2 18020  53.0542 107.9541 0001829  78.2190  46.3437 15.06373536    16
